{
  "norad_id": 67306,
  "name": "STARLINK-36488",
  "history": [
    {
      "epoch": "2026-03-28T16:54:06.416352Z",
      "apogee_km": 483.9634286004548,
      "perigee_km": 481.9221201459832,
      "latitude_deg": -2.235430246267012e-06,
      "longitude_deg": 138.5216954310191,
      "height_km": 482.82352792515053,
      "semi_major_axis_km": 6861.079774373218,
      "eccentricity": 0.00014876,
      "inclination_deg": 42.9988,
      "raan_deg": 218.1693,
      "arg_perigee_deg": 264.1439,
      "mean_anomaly_deg": 95.9243,
      "mean_motion_rev_day": 15.27615508
    }
  ]
}